FM-6                    
1 39360U 13058A   26198.03007251 -.00000026  00000+0  00000+0 0  9999
2 39360   0.0136  35.2929 0001515 146.7149   7.3125  1.00271340 46373
RADUGA-1M 3             
1 39375U 13062A   26198.08323743  .00000140  00000+0  00000+0 0  9998
2 39375   6.0323  71.9687 0002227 282.6245   5.2586  1.00273322 46403
SES-8                   
1 39460U 13071A   26198.14419654 -.00000279  00000+0  00000+0 0  9991
2 39460   0.0513 253.9761 0002677 218.7257 329.1668  1.00271955 44722
INMARSAT 5-F1           
1 39476U 13073A   26198.06648853  .00000017  00000+0  00000+0 0  9995
2 39476   0.0165  50.4759 0000173 267.9374  63.0421  1.00273579 45876
TKSAT-1 (TUPAC KATARI)  
1 39481U 13075A   26198.10809286 -.00000205  00000+0  00000+0 0  9997
2 39481   0.0385 234.7101 0002461 236.2267 135.6960  1.00270278 45907
EXPRESS-AM5             
1 39487U 13077A   26198.22432700 -.00000290  00000+0  00000+0 0  9995
2 39487   0.0280 280.3014 0000081 215.0052  20.5281  1.00270090 46664
GSAT-14                 
1 39498U 14001A   26198.06874189 -.00000087  00000+0  00000+0 0  9992
2 39498   0.0150  87.1698 0001945 122.7536 183.6721  1.00271178 45672
THAICOM 6               
1 39500U 14002A   26198.14090321 -.00000131  00000+0  00000+0 0  9994
2 39500   0.0528 109.1468 0004344  16.5807 298.4560  1.00272768 45753
TDRS 12                 
1 39504U 14004A   26198.18794513 -.00000281  00000+0  00000+0 0  9994
2 39504   4.0073  19.5770 0004316 202.9040  99.3279  1.00272035 44576
ABS-2                   
1 39508U 14006A   26198.06891522  .00000000  00000+0  00000+0 0  9993
2 39508   0.0216  54.9762 0003444  46.6272 293.0227  1.00269789 45579
ATHENA-FIDUS            
1 39509U 14006B   26198.06154852  .00000144  00000+0  00000+0 0  9991
2 39509   0.0284 100.2587 0001369  18.8159 235.7565  1.00272667 45380
TURKSAT 4A              
1 39522U 14007A   26198.13370983  .00000136  00000+0  00000+0 0  9991
2 39522   0.0906 278.3363 0001322 319.4347 147.3369  1.00274438 45268
EXPRESS-AT1             
1 39612U 14010A   26198.16433529 -.00000021  00000+0  00000+0 0  9998
2 39612   0.3330  85.2945 0004429  56.8164 278.1874  1.00309454 45118
EXPRESS-AT2             
1 39613U 14010B   26198.19419796  .00000000  00000+0  00000+0 0  9998
2 39613   0.0193  51.8538 0000196  15.1162 353.9592  1.00270574 44795
AMAZONAS 4A             
1 39616U 14011A   26198.11069286 -.00000262  00000+0  00000+0 0  9990
2 39616   0.0596 189.0347 0004819 310.0358 121.6920  1.00269106 45017
ASTRA 5B                
1 39617U 14011B   26198.12998315  .00000126  00000+0  00000+0 0  9994
2 39617   0.0726 304.2354 0001941 179.9634 241.0056  1.00269113 44962
IRNSS-1B                
1 39635U 14017A   26198.19419796  .00000121  00000+0  00000+0 0  9993
2 39635  28.8725 239.8858 0022265 191.8676 348.3411  1.00276401 45091
LUCH-5V                 
1 39727U 14023A   26198.10233428 -.00000281  00000+0  00000+0 0  9997
2 39727   5.2049  69.4291 0002073  85.1084 271.9565  1.00272952 44651
KAZSAT-3                
1 39728U 14023B   26198.19419796  .00000051  00000+0  00000+0 0  9995
2 39728   0.0098  10.6462 0000090  10.1216  42.6437  1.00271862 42758
EUTELSAT 3B             
1 39773U 14030A   26198.10947382  .00000009  00000+0  00000+0 0  9994
2 39773   0.0612   6.2550 0004185 109.6158 221.5501  1.00271537 44365
ASIASAT 8 (AMOS-7)      
1 40107U 14046A   26198.00361787 -.00000343  00000+0  00000+0 0  9994
2 40107   0.0161  48.1930 0001518  50.9708 302.2601  1.00273160102446
ASIASAT 6               
1 40141U 14052A   26197.79267899 -.00000373  00000+0  00000+0 0  9996
2 40141   0.0139  75.5358 0000825  81.4123 182.9369  1.00269746 43372
OPTUS 10                
1 40146U 14054A   26197.87111176 -.00000158  00000+0  00000+0 0  9999
2 40146   0.0876  45.0717 0001787  63.9839 295.2441  1.00270151 43329
MEASAT-3B               
1 40147U 14054B   26198.14350322 -.00000252  00000+0  00000+0 0  9994
2 40147   0.0247 353.3773 0002824  84.4317   0.3251  1.00273002 43200
HIMAWARI-8              
1 40267U 14060A   26198.15392301 -.00000286  00000+0  00000+0 0  9995
2 40267   0.0180  26.8711 0001140 139.4281 324.7544  1.00270943 43067
IRNSS-1C                
1 40269U 14061A   26196.83150177 -.00000176  00000+0  00000+0 0  9992
2 40269   6.5880  88.3869 0022069   5.5373 222.1370  1.00272233 42973
INTELSAT 30 (IS-30)     
1 40271U 14062A   26198.10653285 -.00000161  00000+0  00000+0 0  9990
2 40271   0.0191  54.9188 0001350 341.3686 201.9363  1.00270060  7098
ARSAT 1                 
1 40272U 14062B   26198.11112619 -.00000270  00000+0  00000+0 0  9994
2 40272   0.0601 272.3858 0001834 195.9127 154.8191  1.00272706 42920
EUTELSAT 53A            
1 40277U 14064A   26198.20690692  .00000088  00000+0  00000+0 0  9999
2 40277   0.0168   4.0273 0001786 196.1294 222.3544  1.00272690 41865
GSAT-16                 
1 40332U 14078A   26197.85109167  .00000000  00000+0  00000+0 0  9992
2 40332   0.0227  60.5515 0007509  34.4329 201.1845  1.00270255 42406
DIRECTV 14              
1 40333U 14078B   26197.85398552 -.00000136  00000+0  00000+0 0  9992
2 40333   0.0102  43.3103 0000522 316.5446 143.0174  1.00271035 42342
YAMAL 401               
1 40345U 14082A   26198.14315655 -.00000238  00000+0  00000+0 0  9999
2 40345   0.0157 105.2530 0000405  11.3958 319.7792  1.00270354 42212
