OBJECT_NAME,OBJECT_ID,EPOCH,MEAN_MOTION,ECCENTRICITY,INCLINATION,RA_OF_ASC_NODE,ARG_OF_PERICENTER,MEAN_ANOMALY,EPHEMERIS_TYPE,CLASSIFICATION_TYPE,NORAD_CAT_ID,ELEMENT_SET_NO,REV_AT_EPOCH,BSTAR,MEAN_MOTION_DOT,MEAN_MOTION_DDOT
FM-6,2013-058A,2026-07-17T00:43:18.264864,1.00271340,.0001515,0.0136,35.2929,146.7149,7.3125,0,U,39360,999,4637,0,-.26E-6,0
RADUGA-1M 3,2013-062A,2026-07-17T01:59:51.713952,1.00273322,.0002227,6.0323,71.9687,282.6245,5.2586,0,U,39375,999,4640,0,.14E-5,0
SES-8,2013-071A,2026-07-17T03:27:38.581056,1.00271955,.0002677,0.0513,253.9761,218.7257,329.1668,0,U,39460,999,4472,0,-.279E-5,0
INMARSAT 5-F1,2013-073A,2026-07-17T01:35:44.608992,1.00273579,.0000173,0.0165,50.4759,267.9374,63.0421,0,U,39476,999,4587,0,.17E-6,0
TKSAT-1 (TUPAC KATARI),2013-075A,2026-07-17T02:35:39.223104,1.00270278,.0002461,0.0385,234.7101,236.2267,135.6960,0,U,39481,999,4590,0,-.205E-5,0
EXPRESS-AM5,2013-077A,2026-07-17T05:23:01.852800,1.00270090,.0000081,0.0280,280.3014,215.0052,20.5281,0,U,39487,999,4666,0,-.29E-5,0
GSAT-14,2014-001A,2026-07-17T01:38:59.299296,1.00271178,.0001945,0.0150,87.1698,122.7536,183.6721,0,U,39498,999,4567,0,-.87E-6,0
THAICOM 6,2014-002A,2026-07-17T03:22:54.037344,1.00272768,.0004344,0.0528,109.1468,16.5807,298.4560,0,U,39500,999,4575,0,-.131E-5,0
TDRS 12,2014-004A,2026-07-17T04:30:38.459232,1.00272035,.0004316,4.0073,19.5770,202.9040,99.3279,0,U,39504,999,4457,0,-.281E-5,0
ABS-2,2014-006A,2026-07-17T01:39:14.275008,1.00269789,.0003444,0.0216,54.9762,46.6272,293.0227,0,U,39508,999,4557,0,0,0
ATHENA-FIDUS,2014-006B,2026-07-17T01:28:37.792128,1.00272667,.0001369,0.0284,100.2587,18.8159,235.7565,0,U,39509,999,4538,0,.144E-5,0
TURKSAT 4A,2014-007A,2026-07-17T03:12:32.529312,1.00274438,.0001322,0.0906,278.3363,319.4347,147.3369,0,U,39522,999,4526,0,.136E-5,0
EXPRESS-AT1,2014-010A,2026-07-17T03:56:38.569056,1.00309454,.0004429,0.3330,85.2945,56.8164,278.1874,0,U,39612,999,4511,0,-.21E-6,0
EXPRESS-AT2,2014-010B,2026-07-17T04:39:38.703744,1.00270574,.0000196,0.0193,51.8538,15.1162,353.9592,0,U,39613,999,4479,0,0,0
AMAZONAS 4A,2014-011A,2026-07-17T02:39:23.863104,1.00269106,.0004819,0.0596,189.0347,310.0358,121.6920,0,U,39616,999,4501,0,-.262E-5,0
ASTRA 5B,2014-011B,2026-07-17T03:07:10.544160,1.00269113,.0001941,0.0726,304.2354,179.9634,241.0056,0,U,39617,999,4496,0,.126E-5,0
IRNSS-1B,2014-017A,2026-07-17T04:39:38.703744,1.00276401,.0022265,28.8725,239.8858,191.8676,348.3411,0,U,39635,999,4509,0,.121E-5,0
LUCH-5V,2014-023A,2026-07-17T02:27:21.681792,1.00272952,.0002073,5.2049,69.4291,85.1084,271.9565,0,U,39727,999,4465,0,-.281E-5,0
KAZSAT-3,2014-023B,2026-07-17T04:39:38.703744,1.00271862,.000009,0.0098,10.6462,10.1216,42.6437,0,U,39728,999,4275,0,.51E-6,0
EUTELSAT 3B,2014-030A,2026-07-17T02:37:38.538048,1.00271537,.0004185,0.0612,6.2550,109.6158,221.5501,0,U,39773,999,4436,0,.9E-7,0
ASIASAT 8 (AMOS-7),2014-046A,2026-07-17T00:05:12.583968,1.00273160,.0001518,0.0161,48.1930,50.9708,302.2601,0,U,40107,999,10244,0,-.343E-5,0
ASIASAT 6,2014-052A,2026-07-16T19:01:27.464736,1.00269746,.0000825,0.0139,75.5358,81.4123,182.9369,0,U,40141,999,4337,0,-.373E-5,0
OPTUS 10,2014-054A,2026-07-16T20:54:24.056064,1.00270151,.0001787,0.0876,45.0717,63.9839,295.2441,0,U,40146,999,4332,0,-.158E-5,0
MEASAT-3B,2014-054B,2026-07-17T03:26:38.678208,1.00273002,.0002824,0.0247,353.3773,84.4317,0.3251,0,U,40147,999,4320,0,-.252E-5,0
HIMAWARI-8,2014-060A,2026-07-17T03:41:38.948064,1.00270943,.000114,0.0180,26.8711,139.4281,324.7544,0,U,40267,999,4306,0,-.286E-5,0
IRNSS-1C,2014-061A,2026-07-15T19:57:21.752928,1.00272233,.00220694,6.5880,88.3869,5.5373,222.1370,0,U,40269,999,4297,0,-.176E-5,0
INTELSAT 30 (IS-30),2014-062A,2026-07-17T02:33:24.438240,1.00270060,.000135,0.0191,54.9188,341.3686,201.9363,0,U,40271,999,709,0,-.161E-5,0
ARSAT 1,2014-062B,2026-07-17T02:40:01.302816,1.00272706,.0001834,0.0601,272.3858,195.9127,154.8191,0,U,40272,999,4292,0,-.27E-5,0
EUTELSAT 53A,2014-064A,2026-07-17T04:57:56.757888,1.00272690,.0001786,0.0168,4.0273,196.1294,222.3544,0,U,40277,999,4186,0,.88E-6,0
GSAT-16,2014-078A,2026-07-16T20:25:34.320288,1.00270255,.0007509,0.0227,60.5515,34.4329,201.1845,0,U,40332,999,4240,0,0,0
DIRECTV 14,2014-078B,2026-07-16T20:29:44.348928,1.00271035,.0000522,0.0102,43.3103,316.5446,143.0174,0,U,40333,999,4234,0,-.136E-5,0
YAMAL 401,2014-082A,2026-07-17T03:26:08.725920,1.00270354,.0000405,0.0157,105.2530,11.3958,319.7792,0,U,40345,999,4221,0,-.238E-5,0
